{"type":"FeatureCollection","features":[
{"type":"Feature","id":"p1","properties":{"id":"p1","name":"青禾省","level":"省","note":"虚构的示例数据，边界不代表任何真实行政区"},"geometry":{"type":"Polygon","coordinates":[[[119.5266729,32.0780725],[119.51976,32.09208],[119.50906,32.10922],[119.49516,32.12541],[119.47761,32.14031],[119.45707,32.15379],[119.43516,32.16605],[119.41397,32.17765],[119.39532,32.1893],[119.38018,32.20161],[119.36827,32.21485],[119.35818,32.22875],[119.3478,32.24252],[119.33507,32.25509],[119.31861,32.26544],[119.29819,32.27301],[119.2748,32.27791],[119.25028,32.281],[119.22672,32.28363],[119.20584,32.28729],[119.1885,32.29311],[119.17456,32.30157],[119.16305,32.3124],[119.15261,32.32473],[119.142,32.33753],[119.1305,32.34998],[119.118,32.36191],[119.10491,32.37379],[119.09185,32.38661],[119.07924,32.40143],[119.06705,32.41884],[119.05475,32.4386],[119.0415,32.45951],[119.02639,32.47961],[119.00884,32.49671],[118.98877,32.509],[118.9666,32.51558],[118.94315,32.51676],[118.91928,32.51394],[118.89567,32.50915],[118.87259,32.50446],[118.85,32.50134],[118.82759,32.50029],[118.80509,32.50077],[118.7970833,32.501052],[118.78238,32.50157],[118.75964,32.50129],[118.73717,32.49892],[118.71526,32.49422],[118.694,32.48783],[118.67313,32.48092],[118.65213,32.4748],[118.63045,32.47031],[118.6095595,32.4677148],[118.60775,32.46749],[118.58419,32.46548],[118.5605,32.46278],[118.53783,32.45775],[118.5174,32.44914],[118.5001,32.43657],[118.48609,32.42064],[118.47466,32.40278],[118.46442,32.38478],[118.45365,32.36827],[118.4409,32.35424],[118.42542,32.34279],[118.40745,32.3332],[118.38811,32.32425],[118.36903,32.31466],[118.35176,32.3035],[118.33727,32.29044],[118.32563,32.27576],[118.31606,32.26013],[118.30735,32.24427],[118.3042693,32.2389003],[118.2984,32.22867],[118.28882,32.2134],[118.27922,32.19813],[118.27112,32.18235],[118.26649,32.16558],[118.26708,32.14767],[118.27369,32.12884],[118.28576,32.10968],[118.30135,32.09092],[118.31758,32.0732],[118.3304087,32.0579949],[118.3314,32.05682],[118.34046,32.04175],[118.34366,32.02761],[118.34144,32.01385],[118.33547,32],[118.32804,31.98579],[118.32123,31.97117],[118.31628,31.95626],[118.31325,31.94119],[118.3112,31.92593],[118.30868,31.91029],[118.30441,31.89394],[118.29795,31.87658],[118.28993,31.85812],[118.28197,31.83881],[118.27613,31.81923],[118.27422,31.80013],[118.27718,31.78218],[118.28472,31.76566],[118.29539,31.75035],[118.30708,31.7355],[118.31767,31.72006],[118.32578,31.70305],[118.33114,31.68395],[118.33471,31.66289],[118.33829,31.64078],[118.34394,31.61899],[118.35335,31.59903],[118.36734,31.58207],[118.38573,31.56862],[118.40751,31.55843],[118.43128,31.55066],[118.45576,31.5443],[118.48018,31.53857],[118.5044,31.53329],[118.52878,31.52898],[118.55389,31.52665],[118.58009,31.52735],[118.60733,31.53171],[118.63503,31.5395],[118.6363088,31.5399713],[118.66227,31.54954],[118.68813,31.55987],[118.71196,31.56833],[118.73362,31.5731],[118.7535,31.57332],[118.77236,31.56928],[118.79101,31.56238],[118.81006,31.55468],[118.82977,31.54825],[118.85,31.54454],[118.87042,31.54407],[118.89069,31.5463],[118.897512,31.5475674],[118.91066,31.55001],[118.93043,31.5538],[118.95027,31.55665],[118.97041,31.55833],[118.99088,31.55945],[119.01139,31.56118],[119.03136,31.56482],[119.05017,31.57121],[119.06746,31.58036],[119.08333,31.5914],[119.09847,31.60282],[119.11396,31.61294],[119.131,31.62053],[119.15042,31.62516],[119.17233,31.62742],[119.19599,31.62871],[119.21996,31.63081],[119.24248,31.63532],[119.26206,31.6432],[119.2779,31.65453],[119.29022,31.66855],[119.3001,31.68403],[119.30912,31.69964],[119.31881,31.71443],[119.3301,31.72805],[119.34302,31.74073],[119.35678,31.7531],[119.37013,31.76587],[119.38195,31.77948],[119.39182,31.79396],[119.40033,31.80897],[119.40896,31.82393],[119.41968,31.83834],[119.43422,31.852],[119.45335,31.86511],[119.47651,31.87821],[119.50173,31.89199],[119.52613,31.90705],[119.54666,31.92366],[119.56094,31.94174],[119.56787,31.96086],[119.56789,31.98045],[119.56267,32],[119.55449,32.01918],[119.54544,32.03791],[119.53675,32.05628],[119.52851,32.07435],[119.5266729,32.0780725]]]}},
{"type":"Feature","id":"c1","properties":{"id":"c1","parentId":"p1","name":"云溪市","level":"市"},"geometry":{"type":"Polygon","coordinates":[[[118.5444681,32.0321154],[118.54659,32.03189],[118.5616,32.03087],[118.57664,32.03022],[118.59168,32.02964],[118.6004221,32.0291805],[118.60671,32.02885],[118.6217,32.02756],[118.63664,32.02552],[118.6515,32.02257],[118.66628,32.01863],[118.68099,32.01374],[118.69564,32.00804],[118.71024,32.00175],[118.72482,31.99518],[118.7394,31.98866],[118.75402,31.98256],[118.76869,31.97719],[118.78344,31.97281],[118.79829,31.96963],[118.81323,31.96771],[118.82827,31.96704],[118.84339,31.96749],[118.85859,31.96886],[118.87384,31.97086],[118.88911,31.97318],[118.90438,31.97552],[118.9065495,31.9758131],[118.9078,31.98938],[118.90971,32.01096],[118.91106,32.03249],[118.91141,32.05392],[118.91033,32.07519],[118.90751,32.09629],[118.90275,32.11719],[118.896,32.13789],[118.88738,32.1584],[118.87717,32.17874],[118.86575,32.19896],[118.85364,32.21911],[118.84138,32.23924],[118.82956,32.25942],[118.81869,32.2797],[118.80922,32.30012],[118.80148,32.32071],[118.79564,32.3415],[118.79175,32.36249],[118.7897,32.38367],[118.78924,32.40501],[118.79005,32.42649],[118.79174,32.44805],[118.7939,32.46966],[118.79616,32.49128],[118.7970833,32.501052],[118.78238,32.50157],[118.75964,32.50129],[118.73717,32.49892],[118.71526,32.49422],[118.694,32.48783],[118.67313,32.48092],[118.65213,32.4748],[118.63045,32.47031],[118.6095595,32.4677148],[118.60775,32.46749],[118.58419,32.46548],[118.5605,32.46278],[118.53783,32.45775],[118.5174,32.44914],[118.5001,32.43657],[118.48609,32.42064],[118.47466,32.40278],[118.46442,32.38478],[118.45365,32.36827],[118.4409,32.35424],[118.42542,32.34279],[118.40745,32.3332],[118.38811,32.32425],[118.36903,32.31466],[118.35176,32.3035],[118.33727,32.29044],[118.32563,32.27576],[118.31606,32.26013],[118.30735,32.24427],[118.3042693,32.2389003],[118.2984,32.22867],[118.28882,32.2134],[118.27922,32.19813],[118.27112,32.18235],[118.26649,32.16558],[118.26708,32.14767],[118.27369,32.12884],[118.28576,32.10968],[118.30135,32.09092],[118.31758,32.0732],[118.3304087,32.0579949],[118.33751,32.0601],[118.35287,32.06353],[118.36812,32.0656],[118.38326,32.06619],[118.39828,32.06533],[118.4132,32.06316],[118.42804,32.05991],[118.44282,32.05588],[118.45756,32.05142],[118.4723,32.04689],[118.48706,32.04262],[118.50186,32.03886],[118.51671,32.03579],[118.53162,32.03348],[118.5444681,32.0321154]]]}},
{"type":"Feature","id":"d1","properties":{"id":"d1","parentId":"c1","name":"云溪北区","level":"区县"},"geometry":{"type":"Polygon","coordinates":[[[118.30569,32.23856],[118.3131,32.23705],[118.32052,32.23585],[118.32796,32.23499],[118.33541,32.23442],[118.34287,32.23409],[118.35034,32.23391],[118.35781,32.23377],[118.36528,32.23355],[118.37274,32.23316],[118.38019,32.23252],[118.38763,32.23159],[118.39505,32.23037],[118.40246,32.2289],[118.40986,32.22728],[118.41725,32.22561],[118.42466,32.22406],[118.43207,32.22277],[118.43951,32.22189],[118.44697,32.22156],[118.45447,32.22186],[118.462,32.22285],[118.46956,32.22452],[118.47715,32.2268],[118.48476,32.22959],[118.4924,32.23273],[118.50004,32.23604],[118.50767,32.23931],[118.5153,32.24235],[118.52291,32.24497],[118.53049,32.24703],[118.53804,32.24843],[118.54555,32.2491],[118.55303,32.24906],[118.56047,32.24836],[118.56789,32.24709],[118.57528,32.24538],[118.58267,32.24337],[118.59004,32.24121],[118.59742,32.23904],[118.60479,32.23698],[118.6112412,32.2353563],[118.61252,32.24067],[118.61389,32.25125],[118.6142,32.26197],[118.61356,32.27282],[118.61216,32.28376],[118.61024,32.29477],[118.60804,32.30583],[118.6058,32.31688],[118.60375,32.32791],[118.60206,32.3389],[118.60087,32.34981],[118.60023,32.36066],[118.60015,32.37143],[118.60058,32.38213],[118.60142,32.39278],[118.60257,32.40339],[118.60387,32.41398],[118.60522,32.42456],[118.6065,32.43515],[118.60765,32.44576],[118.60865,32.45639],[118.60951,32.46703],[118.6095595,32.4677148],[118.60775,32.46749],[118.58419,32.46548],[118.5605,32.46278],[118.53783,32.45775],[118.5174,32.44914],[118.5001,32.43657],[118.48609,32.42064],[118.47466,32.40278],[118.46442,32.38478],[118.45365,32.36827],[118.4409,32.35424],[118.42542,32.34279],[118.40745,32.3332],[118.38811,32.32425],[118.36903,32.31466],[118.35176,32.3035],[118.33727,32.29044],[118.32563,32.27576],[118.31606,32.26013],[118.30735,32.24427],[118.3042693,32.2389003],[118.30569,32.23856]]]}},
{"type":"Feature","id":"m2","properties":{"id":"m2","parentId":"d1","name":"北区图书馆","color":"#8B5CF6","icon":"star"},"geometry":{"type":"Point","coordinates":[118.41275,32.33233]}},
{"type":"Feature","id":"d2","properties":{"id":"d2","parentId":"c1","name":"云溪南区","level":"区县"},"geometry":{"type":"Polygon","coordinates":[[[118.3042693,32.2389003],[118.2984,32.22867],[118.28882,32.2134],[118.27922,32.19813],[118.27112,32.18235],[118.26649,32.16558],[118.26708,32.14767],[118.27369,32.12884],[118.28576,32.10968],[118.30135,32.09092],[118.31758,32.0732],[118.3304087,32.0579949],[118.33751,32.0601],[118.35287,32.06353],[118.36812,32.0656],[118.38326,32.06619],[118.39828,32.06533],[118.4132,32.06316],[118.42804,32.05991],[118.44282,32.05588],[118.45756,32.05142],[118.4723,32.04689],[118.48706,32.04262],[118.50186,32.03886],[118.51671,32.03579],[118.53162,32.03348],[118.5444681,32.0321154],[118.54454,32.03445],[118.54471,32.04519],[118.5448,32.05594],[118.54493,32.06668],[118.54524,32.0774],[118.54593,32.08807],[118.54714,32.09867],[118.54905,32.10918],[118.55176,32.11958],[118.55533,32.12987],[118.55977,32.14004],[118.56499,32.15011],[118.57087,32.16009],[118.5772,32.17002],[118.58373,32.17992],[118.59018,32.18982],[118.59628,32.19978],[118.60176,32.20981],[118.60639,32.21996],[118.61001,32.23024],[118.6112412,32.2353563],[118.60479,32.23698],[118.59742,32.23904],[118.59004,32.24121],[118.58267,32.24337],[118.57528,32.24538],[118.56789,32.24709],[118.56047,32.24836],[118.55303,32.24906],[118.54555,32.2491],[118.53804,32.24843],[118.53049,32.24703],[118.52291,32.24497],[118.5153,32.24235],[118.50767,32.23931],[118.50004,32.23604],[118.4924,32.23273],[118.48476,32.22959],[118.47715,32.2268],[118.46956,32.22452],[118.462,32.22285],[118.45447,32.22186],[118.44697,32.22156],[118.43951,32.22189],[118.43207,32.22277],[118.42466,32.22406],[118.41725,32.22561],[118.40986,32.22728],[118.40246,32.2289],[118.39505,32.23037],[118.38763,32.23159],[118.38019,32.23252],[118.37274,32.23316],[118.36528,32.23355],[118.35781,32.23377],[118.35034,32.23391],[118.34287,32.23409],[118.33541,32.23442],[118.32796,32.23499],[118.32052,32.23585],[118.3131,32.23705],[118.30569,32.23856],[118.3042693,32.2389003]]]}},
{"type":"Feature","id":"m1","properties":{"id":"m1","parentId":"d2","name":"云溪火车站","note":"点标记示例：图钉","color":"#EF4444","icon":"pin"},"geometry":{"type":"Point","coordinates":[118.40439,32.10806]}},
{"type":"Feature","id":"d3","properties":{"id":"d3","parentId":"c1","name":"云溪新区","level":"区县"},"geometry":{"type":"Polygon","coordinates":[[[118.60671,32.02885],[118.6217,32.02756],[118.63664,32.02552],[118.6515,32.02257],[118.66628,32.01863],[118.68099,32.01374],[118.69564,32.00804],[118.71024,32.00175],[118.72482,31.99518],[118.7394,31.98866],[118.75402,31.98256],[118.76869,31.97719],[118.78344,31.97281],[118.79829,31.96963],[118.81323,31.96771],[118.82827,31.96704],[118.84339,31.96749],[118.85859,31.96886],[118.87384,31.97086],[118.88911,31.97318],[118.90438,31.97552],[118.9065495,31.9758131],[118.9078,31.98938],[118.90971,32.01096],[118.91106,32.03249],[118.91141,32.05392],[118.91033,32.07519],[118.90751,32.09629],[118.90275,32.11719],[118.896,32.13789],[118.88738,32.1584],[118.87717,32.17874],[118.86575,32.19896],[118.85364,32.21911],[118.84138,32.23924],[118.82956,32.25942],[118.81869,32.2797],[118.80922,32.30012],[118.80148,32.32071],[118.79564,32.3415],[118.79175,32.36249],[118.7897,32.38367],[118.78924,32.40501],[118.79005,32.42649],[118.79174,32.44805],[118.7939,32.46966],[118.79616,32.49128],[118.7970833,32.501052],[118.78238,32.50157],[118.75964,32.50129],[118.73717,32.49892],[118.71526,32.49422],[118.694,32.48783],[118.67313,32.48092],[118.65213,32.4748],[118.63045,32.47031],[118.6095595,32.4677148],[118.60951,32.46703],[118.60865,32.45639],[118.60765,32.44576],[118.6065,32.43515],[118.60522,32.42456],[118.60387,32.41398],[118.60257,32.40339],[118.60142,32.39278],[118.60058,32.38213],[118.60015,32.37143],[118.60023,32.36066],[118.60087,32.34981],[118.60206,32.3389],[118.60375,32.32791],[118.6058,32.31688],[118.60804,32.30583],[118.61024,32.29477],[118.61216,32.28376],[118.61356,32.27282],[118.6142,32.26197],[118.61389,32.25125],[118.61252,32.24067],[118.6112412,32.2353563],[118.61001,32.23024],[118.60639,32.21996],[118.60176,32.20981],[118.59628,32.19978],[118.59018,32.18982],[118.58373,32.17992],[118.5772,32.17002],[118.57087,32.16009],[118.56499,32.15011],[118.55977,32.14004],[118.55533,32.12987],[118.55176,32.11958],[118.54905,32.10918],[118.54714,32.09867],[118.54593,32.08807],[118.54524,32.0774],[118.54493,32.06668],[118.5448,32.05594],[118.54471,32.04519],[118.54454,32.03445],[118.5444681,32.0321154],[118.54659,32.03189],[118.5616,32.03087],[118.57664,32.03022],[118.59168,32.02964],[118.6004221,32.0291805],[118.60671,32.02885]]]}},
{"type":"Feature","id":"c2","properties":{"id":"c2","parentId":"p1","name":"临江市","level":"市"},"geometry":{"type":"Polygon","coordinates":[[[118.60671,32.02885],[118.6004221,32.0291805],[118.59168,32.02964],[118.57664,32.03022],[118.5616,32.03087],[118.54659,32.03189],[118.5444681,32.0321154],[118.53162,32.03348],[118.51671,32.03579],[118.50186,32.03886],[118.48706,32.04262],[118.4723,32.04689],[118.45756,32.05142],[118.44282,32.05588],[118.42804,32.05991],[118.4132,32.06316],[118.39828,32.06533],[118.38326,32.06619],[118.36812,32.0656],[118.35287,32.06353],[118.33751,32.0601],[118.3304087,32.0579949],[118.3314,32.05682],[118.34046,32.04175],[118.34366,32.02761],[118.34144,32.01385],[118.33547,32],[118.32804,31.98579],[118.32123,31.97117],[118.31628,31.95626],[118.31325,31.94119],[118.3112,31.92593],[118.30868,31.91029],[118.30441,31.89394],[118.29795,31.87658],[118.28993,31.85812],[118.28197,31.83881],[118.27613,31.81923],[118.27422,31.80013],[118.27718,31.78218],[118.28472,31.76566],[118.29539,31.75035],[118.30708,31.7355],[118.31767,31.72006],[118.32578,31.70305],[118.33114,31.68395],[118.33471,31.66289],[118.33829,31.64078],[118.34394,31.61899],[118.35335,31.59903],[118.36734,31.58207],[118.38573,31.56862],[118.40751,31.55843],[118.43128,31.55066],[118.45576,31.5443],[118.48018,31.53857],[118.5044,31.53329],[118.52878,31.52898],[118.55389,31.52665],[118.58009,31.52735],[118.60733,31.53171],[118.63503,31.5395],[118.6363088,31.5399713],[118.66227,31.54954],[118.68813,31.55987],[118.71196,31.56833],[118.73362,31.5731],[118.7535,31.57332],[118.77236,31.56928],[118.79101,31.56238],[118.81006,31.55468],[118.82977,31.54825],[118.85,31.54454],[118.87042,31.54407],[118.89069,31.5463],[118.897512,31.5475674],[118.8988,31.56069],[118.90188,31.58239],[118.90557,31.60416],[118.90945,31.62595],[118.91312,31.64771],[118.91619,31.66941],[118.91838,31.69103],[118.91949,31.71253],[118.91945,31.73391],[118.91833,31.75519],[118.91631,31.77637],[118.91366,31.79749],[118.91074,31.81857],[118.90791,31.83967],[118.9055,31.86082],[118.9038,31.88203],[118.903,31.90334],[118.90314,31.92474],[118.90415,31.94623],[118.905076,31.9582571],[118.90581,31.96779],[118.9065495,31.9758131],[118.90438,31.97552],[118.88911,31.97318],[118.87384,31.97086],[118.85859,31.96886],[118.84339,31.96749],[118.82827,31.96704],[118.81323,31.96771],[118.79829,31.96963],[118.78344,31.97281],[118.76869,31.97719],[118.75402,31.98256],[118.7394,31.98866],[118.72482,31.99518],[118.71024,32.00175],[118.69564,32.00804],[118.68099,32.01374],[118.66628,32.01863],[118.6515,32.02257],[118.63664,32.02552],[118.6217,32.02756],[118.60671,32.02885]]]}},
{"type":"Feature","id":"d4","properties":{"id":"d4","parentId":"c2","name":"临江西区","level":"区县"},"geometry":{"type":"Polygon","coordinates":[[[118.3304087,32.0579949],[118.3314,32.05682],[118.34046,32.04175],[118.34366,32.02761],[118.34144,32.01385],[118.33547,32],[118.32804,31.98579],[118.32123,31.97117],[118.31628,31.95626],[118.31325,31.94119],[118.3112,31.92593],[118.30868,31.91029],[118.30441,31.89394],[118.29795,31.87658],[118.28993,31.85812],[118.28197,31.83881],[118.27613,31.81923],[118.27422,31.80013],[118.27718,31.78218],[118.28472,31.76566],[118.29539,31.75035],[118.30708,31.7355],[118.31767,31.72006],[118.32578,31.70305],[118.33114,31.68395],[118.33471,31.66289],[118.33829,31.64078],[118.34394,31.61899],[118.35335,31.59903],[118.36734,31.58207],[118.38573,31.56862],[118.40751,31.55843],[118.43128,31.55066],[118.45576,31.5443],[118.48018,31.53857],[118.5044,31.53329],[118.52878,31.52898],[118.55389,31.52665],[118.58009,31.52735],[118.60733,31.53171],[118.63503,31.5395],[118.6363088,31.5399713],[118.63629,31.54004],[118.63328,31.55052],[118.6303,31.56101],[118.62751,31.57151],[118.62508,31.58205],[118.62317,31.59262],[118.62188,31.60324],[118.6213,31.61393],[118.62144,31.62467],[118.62226,31.63546],[118.62366,31.6463],[118.62551,31.65718],[118.62764,31.66808],[118.62985,31.67899],[118.63196,31.68989],[118.63379,31.70076],[118.63522,31.71161],[118.63614,31.72241],[118.63653,31.73317],[118.63639,31.74389],[118.63581,31.75457],[118.6349,31.76522],[118.6338,31.77586],[118.63267,31.7865],[118.63165,31.79714],[118.63087,31.80781],[118.63042,31.8185],[118.63035,31.82923],[118.63063,31.83998],[118.63122,31.85075],[118.632,31.86154],[118.63281,31.87234],[118.63351,31.88312],[118.6339,31.89388],[118.63385,31.90461],[118.63323,31.91529],[118.63196,31.92591],[118.63,31.93648],[118.6274,31.947],[118.62425,31.95747],[118.62066,31.96791],[118.61682,31.97833],[118.61291,31.98874],[118.60912,31.99917],[118.60563,32.00961],[118.60258,32.0201],[118.6004221,32.0291805],[118.59168,32.02964],[118.57664,32.03022],[118.5616,32.03087],[118.54659,32.03189],[118.5444681,32.0321154],[118.53162,32.03348],[118.51671,32.03579],[118.50186,32.03886],[118.48706,32.04262],[118.4723,32.04689],[118.45756,32.05142],[118.44282,32.05588],[118.42804,32.05991],[118.4132,32.06316],[118.39828,32.06533],[118.38326,32.06619],[118.36812,32.0656],[118.35287,32.06353],[118.33751,32.0601],[118.3304087,32.0579949]]]}},
{"type":"Feature","id":"d5","properties":{"id":"d5","parentId":"c2","name":"临江东区","level":"区县"},"geometry":{"type":"Polygon","coordinates":[[[118.60671,32.02885],[118.6004221,32.0291805],[118.60258,32.0201],[118.60563,32.00961],[118.60912,31.99917],[118.61291,31.98874],[118.61682,31.97833],[118.62066,31.96791],[118.62425,31.95747],[118.6274,31.947],[118.63,31.93648],[118.63196,31.92591],[118.63323,31.91529],[118.63385,31.90461],[118.6339,31.89388],[118.63351,31.88312],[118.63281,31.87234],[118.632,31.86154],[118.63122,31.85075],[118.63063,31.83998],[118.63035,31.82923],[118.63042,31.8185],[118.63087,31.80781],[118.63165,31.79714],[118.63267,31.7865],[118.6338,31.77586],[118.6349,31.76522],[118.63581,31.75457],[118.63639,31.74389],[118.63653,31.73317],[118.63614,31.72241],[118.63522,31.71161],[118.63379,31.70076],[118.63196,31.68989],[118.62985,31.67899],[118.62764,31.66808],[118.62551,31.65718],[118.62366,31.6463],[118.62226,31.63546],[118.62144,31.62467],[118.6213,31.61393],[118.62188,31.60324],[118.62317,31.59262],[118.62508,31.58205],[118.62751,31.57151],[118.6303,31.56101],[118.63328,31.55052],[118.63629,31.54004],[118.6363088,31.5399713],[118.66227,31.54954],[118.68813,31.55987],[118.71196,31.56833],[118.73362,31.5731],[118.7535,31.57332],[118.77236,31.56928],[118.79101,31.56238],[118.81006,31.55468],[118.82977,31.54825],[118.85,31.54454],[118.87042,31.54407],[118.89069,31.5463],[118.897512,31.5475674],[118.8988,31.56069],[118.90188,31.58239],[118.90557,31.60416],[118.90945,31.62595],[118.91312,31.64771],[118.91619,31.66941],[118.91838,31.69103],[118.91949,31.71253],[118.91945,31.73391],[118.91833,31.75519],[118.91631,31.77637],[118.91366,31.79749],[118.91074,31.81857],[118.90791,31.83967],[118.9055,31.86082],[118.9038,31.88203],[118.903,31.90334],[118.90314,31.92474],[118.90415,31.94623],[118.905076,31.9582571],[118.90581,31.96779],[118.9065495,31.9758131],[118.90438,31.97552],[118.88911,31.97318],[118.87384,31.97086],[118.85859,31.96886],[118.84339,31.96749],[118.82827,31.96704],[118.81323,31.96771],[118.79829,31.96963],[118.78344,31.97281],[118.76869,31.97719],[118.75402,31.98256],[118.7394,31.98866],[118.72482,31.99518],[118.71024,32.00175],[118.69564,32.00804],[118.68099,32.01374],[118.66628,32.01863],[118.6515,32.02257],[118.63664,32.02552],[118.6217,32.02756],[118.60671,32.02885]]]}},
{"type":"Feature","id":"m5","properties":{"id":"m5","parentId":"d5","name":"临江机场","color":"#F59E0B","icon":"triangle"},"geometry":{"type":"Point","coordinates":[118.72805,31.66227]}},
{"type":"Feature","id":"c3","properties":{"id":"c3","parentId":"p1","name":"石桥市","level":"市"},"geometry":{"type":"Polygon","coordinates":[[[118.905076,31.9582571],[118.9067,31.95863],[118.92251,31.96173],[118.93846,31.96413],[118.95457,31.96566],[118.97087,31.96618],[118.98738,31.96566],[119.00407,31.96412],[119.02093,31.96169],[119.03792,31.9586],[119.05498,31.95514],[119.07204,31.95166],[119.08903,31.94856],[119.10587,31.9462],[119.12251,31.94495],[119.13889,31.94509],[119.15497,31.9468],[119.17073,31.95019],[119.18618,31.95521],[119.20134,31.96173],[119.21627,31.96951],[119.23102,31.97822],[119.24567,31.98748],[119.26028,31.99692],[119.27493,32.00615],[119.28969,32.01484],[119.30459,32.02274],[119.31968,32.02968],[119.33496,32.03559],[119.35044,32.0405],[119.36607,32.04452],[119.38185,32.04785],[119.39771,32.0507],[119.41361,32.05331],[119.42952,32.05592],[119.4454,32.0587],[119.46121,32.0618],[119.47696,32.06525],[119.49264,32.06906],[119.50827,32.07313],[119.52388,32.07733],[119.5266729,32.0780725],[119.51976,32.09208],[119.50906,32.10922],[119.49516,32.12541],[119.47761,32.14031],[119.45707,32.15379],[119.43516,32.16605],[119.41397,32.17765],[119.39532,32.1893],[119.38018,32.20161],[119.36827,32.21485],[119.35818,32.22875],[119.3478,32.24252],[119.33507,32.25509],[119.31861,32.26544],[119.29819,32.27301],[119.2748,32.27791],[119.25028,32.281],[119.22672,32.28363],[119.20584,32.28729],[119.1885,32.29311],[119.17456,32.30157],[119.16305,32.3124],[119.15261,32.32473],[119.142,32.33753],[119.1305,32.34998],[119.118,32.36191],[119.10491,32.37379],[119.09185,32.38661],[119.07924,32.40143],[119.06705,32.41884],[119.05475,32.4386],[119.0415,32.45951],[119.02639,32.47961],[119.00884,32.49671],[118.98877,32.509],[118.9666,32.51558],[118.94315,32.51676],[118.91928,32.51394],[118.89567,32.50915],[118.87259,32.50446],[118.85,32.50134],[118.82759,32.50029],[118.80509,32.50077],[118.7970833,32.501052],[118.79616,32.49128],[118.7939,32.46966],[118.79174,32.44805],[118.79005,32.42649],[118.78924,32.40501],[118.7897,32.38367],[118.79175,32.36249],[118.79564,32.3415],[118.80148,32.32071],[118.80922,32.30012],[118.81869,32.2797],[118.82956,32.25942],[118.84138,32.23924],[118.85364,32.21911],[118.86575,32.19896],[118.87717,32.17874],[118.88738,32.1584],[118.896,32.13789],[118.90275,32.11719],[118.90751,32.09629],[118.91033,32.07519],[118.91141,32.05392],[118.91106,32.03249],[118.90971,32.01096],[118.9078,31.98938],[118.9065495,31.9758131],[118.90581,31.96779],[118.905076,31.9582571],[118.905076,31.9582571]]]}},
{"type":"Feature","id":"m3","properties":{"id":"m3","parentId":"c3","name":"石桥码头","color":"#2563EB","icon":"flag"},"geometry":{"type":"Point","coordinates":[118.9736,32.11649]}},
{"type":"Feature","id":"c4","properties":{"id":"c4","parentId":"p1","name":"松原市","level":"市"},"geometry":{"type":"Polygon","coordinates":[[[118.897512,31.5475674],[118.91066,31.55001],[118.93043,31.5538],[118.95027,31.55665],[118.97041,31.55833],[118.99088,31.55945],[119.01139,31.56118],[119.03136,31.56482],[119.05017,31.57121],[119.06746,31.58036],[119.08333,31.5914],[119.09847,31.60282],[119.11396,31.61294],[119.131,31.62053],[119.15042,31.62516],[119.17233,31.62742],[119.19599,31.62871],[119.21996,31.63081],[119.24248,31.63532],[119.26206,31.6432],[119.2779,31.65453],[119.29022,31.66855],[119.3001,31.68403],[119.30912,31.69964],[119.31881,31.71443],[119.3301,31.72805],[119.34302,31.74073],[119.35678,31.7531],[119.37013,31.76587],[119.38195,31.77948],[119.39182,31.79396],[119.40033,31.80897],[119.40896,31.82393],[119.41968,31.83834],[119.43422,31.852],[119.45335,31.86511],[119.47651,31.87821],[119.50173,31.89199],[119.52613,31.90705],[119.54666,31.92366],[119.56094,31.94174],[119.56787,31.96086],[119.56789,31.98045],[119.56267,32],[119.55449,32.01918],[119.54544,32.03791],[119.53675,32.05628],[119.52851,32.07435],[119.5266729,32.0780725],[119.52388,32.07733],[119.50827,32.07313],[119.49264,32.06906],[119.47696,32.06525],[119.46121,32.0618],[119.4454,32.0587],[119.42952,32.05592],[119.41361,32.05331],[119.39771,32.0507],[119.38185,32.04785],[119.36607,32.04452],[119.35044,32.0405],[119.33496,32.03559],[119.31968,32.02968],[119.30459,32.02274],[119.28969,32.01484],[119.27493,32.00615],[119.26028,31.99692],[119.24567,31.98748],[119.23102,31.97822],[119.21627,31.96951],[119.20134,31.96173],[119.18618,31.95521],[119.17073,31.95019],[119.15497,31.9468],[119.13889,31.94509],[119.12251,31.94495],[119.10587,31.9462],[119.08903,31.94856],[119.07204,31.95166],[119.05498,31.95514],[119.03792,31.9586],[119.02093,31.96169],[119.00407,31.96412],[118.98738,31.96566],[118.97087,31.96618],[118.95457,31.96566],[118.93846,31.96413],[118.92251,31.96173],[118.9067,31.95863],[118.905076,31.9582571],[118.905076,31.9582571],[118.90415,31.94623],[118.90314,31.92474],[118.903,31.90334],[118.9038,31.88203],[118.9055,31.86082],[118.90791,31.83967],[118.91074,31.81857],[118.91366,31.79749],[118.91631,31.77637],[118.91833,31.75519],[118.91945,31.73391],[118.91949,31.71253],[118.91838,31.69103],[118.91619,31.66941],[118.91312,31.64771],[118.90945,31.62595],[118.90557,31.60416],[118.90188,31.58239],[118.8988,31.56069],[118.897512,31.5475674]]]}},
{"type":"Feature","id":"m4","properties":{"id":"m4","parentId":"c4","name":"松原体育中心","color":"#10B981","icon":"circle"},"geometry":{"type":"Point","coordinates":[119.19918,31.75977]}},
{"type":"Feature","id":"r1","properties":{"id":"r1","parentId":"p1","name":"青禾江","color":"#0891B2"},"geometry":{"type":"LineString","coordinates":[[118.2904958,31.8594223],[118.29102,31.85938],[118.31556,31.85749],[118.34008,31.85597],[118.36456,31.85502],[118.38901,31.85477],[118.4134,31.85524],[118.43776,31.85635],[118.46209,31.85795],[118.4864,31.85981],[118.51071,31.86167],[118.53504,31.86327],[118.55939,31.86439],[118.58379,31.86487],[118.60823,31.86464],[118.63271,31.86376],[118.65722,31.86238],[118.68175,31.86076],[118.70627,31.85924],[118.73076,31.85821],[118.75519,31.85809],[118.77954,31.85923],[118.8038,31.86196],[118.82795,31.86647],[118.85198,31.87283],[118.87591,31.88096],[118.89974,31.89063],[118.92349,31.9015],[118.9472,31.9131],[118.9709,31.9249],[118.99462,31.93634],[119.0184,31.94688],[119.04226,31.95605],[119.06623,31.96347],[119.09032,31.96889],[119.11454,31.97223],[119.13889,31.97352],[119.16335,31.97297],[119.1879,31.97087],[119.21253,31.96761],[119.2372,31.96363],[119.26189,31.95935],[119.28657,31.95518],[119.31123,31.95145],[119.33584,31.9484],[119.3604,31.94616],[119.38492,31.94477],[119.40938,31.94418],[119.4338,31.94425],[119.45819,31.94483],[119.48256,31.94572],[119.50692,31.94677],[119.53128,31.94786],[119.55564,31.94893],[119.5636739,31.9492829]]}}
]}
